ONEWEB-0520             
1 54138U 22138AB  26018.92240258 -.00000111  00000+0 -30834-3 0  9991
2 54138  87.9245 334.6635 0001558  72.1705 287.9598 13.19724765157139
ONEWEB-0521             
1 54139U 22138AC  26018.87975660 -.00000044  00000+0 -14322-3 0  9997
2 54139  87.9245 334.6559 0002020  79.7479 280.3881 13.19725713157070
ONEWEB-0522             
1 54140U 22138AD  26018.93503301 -.00000109  00000+0 -30362-3 0  9999
2 54140  87.9244 334.6462 0001685  74.0833 286.0485 13.19726528157126
ONEWEB-0523             
1 54141U 22138AE  26018.78960892  .00000014  00000+0  33885-5 0  9993
2 54141  87.9230 304.2446 0002193  94.7087 265.4296 13.20769711159588
ONEWEB-0524             
1 54142U 22138AF  26018.85431340  .00000035  00000+0  53379-4 0  9995
2 54142  87.9231 304.2335 0001417 110.4990 249.6296 13.20772495159592
ONEWEB-0525             
1 54143U 22138AG  26018.87817537  .00000005  00000+0 -19479-4 0  9995
2 54143  87.9238 334.6752 0001577  71.8686 288.2619 13.19725809157130
ONEWEB-0526             
1 54144U 22138AH  26018.91134605 -.00000021  00000+0 -85717-4 0  9996
2 54144  87.9245 334.6600 0001658  78.3863 281.7456 13.19725394157114
ONEWEB-0529             
1 54145U 22138AJ  26018.91450476 -.00000007  00000+0 -48687-4 0  9993
2 54145  87.9234 334.6825 0001545  73.7283 286.4019 13.19725235157135
